{
    "links": {
        "self": "http://www.neowsapp.com/rest/v1/neo/3170226?api_key=iIulBulltgU6a56xZRHN4H3l9WmuAYTsLGpBGhQ2"
    },
    "id": "3170226",
    "neo_reference_id": "3170226",
    "name": "(2003 YP94)",
    "designation": "2003 YP94",
    "nasa_jpl_url": "http://ssd.jpl.nasa.gov/sbdb.cgi?sstr=3170226",
    "absolute_magnitude_h": 23.8,
    "estimated_diameter": {
        "kilometers": {
            "estimated_diameter_min": 0.046190746,
            "estimated_diameter_max": 0.1032856481
        },
        "meters": {
            "estimated_diameter_min": 46.1907460282,
            "estimated_diameter_max": 103.2856480504
        },
        "miles": {
            "estimated_diameter_min": 0.0287015901,
            "estimated_diameter_max": 0.0641787064
        },
        "feet": {
            "estimated_diameter_min": 151.544447199,
            "estimated_diameter_max": 338.8636855496
        }
    },
    "is_potentially_hazardous_asteroid": false,
    "close_approach_data": [
        {
            "close_approach_date": "2004-01-01",
            "close_approach_date_full": "2004-Jan-01 17:06",
            "epoch_date_close_approach": 1072976760000,
            "relative_velocity": {
                "kilometers_per_second": "8.0687996216",
                "kilometers_per_hour": "29047.6786377509",
                "miles_per_hour": "18049.0978735514"
            },
            "miss_distance": {
                "astronomical": "0.0559212758",
                "lunar": "21.7533762862",
                "kilometers": "8365703.747362546",
                "miles": "5198207.2645372948"
            },
            "orbiting_body": "Earth"
        }
    ],
    "orbital_data": {
        "orbit_id": "10",
        "orbit_determination_date": "2017-04-06 09:13:22",
        "first_observation_date": "2003-12-22",
        "last_observation_date": "2004-01-02",
        "data_arc_in_days": 11,
        "observations_used": 38,
        "orbit_uncertainty": "8",
        "minimum_orbit_intersection": ".0524293",
        "jupiter_tisserand_invariant": "3.481",
        "epoch_osculation": "2453001.5",
        "eccentricity": ".5349867509989042",
        "semi_major_axis": "2.16589198330392",
        "inclination": "8.214947209843931",
        "ascending_node_longitude": "263.6825138992825",
        "orbital_period": "1164.269760255194",
        "perihelion_distance": "1.007168468141583",
        "perihelion_argument": "211.0446164674654",
        "aphelion_distance": "3.324615498466257",
        "perihelion_time": "2453018.670681797060",
        "mean_anomaly": "354.6907102993152",
        "mean_motion": ".3092066910001102",
        "equinox": "J2000",
        "orbit_class": {
            "orbit_class_type": "APO",
            "orbit_class_description": "Near-Earth asteroid orbits which cross the Earth’s orbit similar to that of 1862 Apollo",
            "orbit_class_range": "a (semi-major axis) > 1.0 AU; q (perihelion) < 1.017 AU"
        }
    },
    "is_sentry_object": false
}